COSMOS 2251 DEB         
1 37295U 93036BJK 17345.24403775  .00000350  00000-0  90041-4 0  9995
2 37295  74.0121  73.3347 0057008 247.9005 111.6099 14.53080460399275
